OBJECT_NAME,OBJECT_ID,EPOCH,MEAN_MOTION,ECCENTRICITY,INCLINATION,RA_OF_ASC_NODE,ARG_OF_PERICENTER,MEAN_ANOMALY,EPHEMERIS_TYPE,CLASSIFICATION_TYPE,NORAD_CAT_ID,ELEMENT_SET_NO,REV_AT_EPOCH,BSTAR,MEAN_MOTION_DOT,MEAN_MOTION_DDOT
STARLINK-3111,2021-104L,2025-05-19T08:00:30.483360,15.08838190,.0001477,53.2171,110.5333,88.8250,271.2912,0,U,49418,999,19418,.14996E-4,-.49E-6,0
STARLINK-3120,2021-104M,2025-05-19T15:41:32.633088,15.08839389,.0001349,53.2159,109.0964,94.8434,265.2712,0,U,49419,999,19532,-.80019E-5,-.415E-5,0
STARLINK-3110,2021-104N,2025-05-19T04:44:26.420064,15.08837198,.0001414,53.2164,111.1455,90.9595,269.1559,0,U,49420,999,19416,-.16099E-4,-.544E-5,0
STARLINK-3112,2021-104P,2025-05-19T07:07:28.327296,15.08838648,.0001541,53.2165,110.5066,71.4010,288.7150,0,U,49421,999,19418,.17949E-4,-.2E-7,0
STARLINK-3161,2021-104Q,2025-05-19T14:55:19.099776,15.08824735,.0001238,53.2168,109.5600,90.5333,269.5801,0,U,49422,999,19533,.65929E-5,-.183E-5,0
STARLINK-3149,2021-104R,2025-05-19T07:49:56.537184,15.08839626,.0001416,53.2161,110.7599,91.5099,268.6055,0,U,49423,999,19418,.35152E-4,.272E-5,0
STARLINK-3135,2021-104S,2025-05-19T07:39:19.092672,15.08848046,.0001626,53.2166,110.5993,85.0853,275.0325,0,U,49424,999,19418,.11525E-4,-.105E-5,0
STARLINK-3139,2021-104T,2025-05-19T15:16:25.831776,15.08834738,.0001371,53.2170,109.1846,87.7200,272.3949,0,U,49425,999,19532,.83402E-5,-.155E-5,0
STARLINK-3114,2021-104U,2025-05-19T07:28:43.266432,15.08855047,.0001168,53.2162,110.6338,79.8916,280.2208,0,U,49426,999,19418,.12762E-3,.1745E-4,0
STARLINK-3131,2021-104V,2025-05-19T07:14:12.260256,15.08834253,.0001279,53.2172,110.6876,58.8341,301.2776,0,U,49427,999,19419,-.2823E-5,-.333E-5,0
STARLINK-3121,2021-104W,2025-05-19T14:43:14.150208,15.08841317,.0001665,53.2168,109.1923,83.5875,276.5307,0,U,49428,999,19424,.26724E-4,.137E-5,0
STARLINK-3138,2021-104Y,2025-05-19T04:35:16.106496,15.08838414,.0001433,53.2160,111.4538,87.7335,272.3822,0,U,49430,999,19417,.1469E-4,-.54E-6,0
STARLINK-3153,2021-104Z,2025-05-19T14:32:41.111232,15.08836719,.0001427,53.2170,109.4930,87.2223,272.8933,0,U,49431,999,19423,-.24163E-4,-.672E-5,0
STARLINK-3158,2021-104AA,2025-05-19T04:41:51.460800,15.08831054,.0001604,53.2175,101.1548,94.1081,266.0095,0,U,49432,999,19431,.38935E-5,-.226E-5,0
STARLINK-3079,2021-104AB,2025-05-19T20:35:38.873184,15.08837468,.0001449,53.2173,88.1815,90.7297,269.3861,0,U,49433,999,19564,-.40109E-5,-.352E-5,0
STARLINK-3134,2021-104AC,2025-05-19T21:41:52.365984,15.08866899,.0000808,53.2166,108.1277,85.2225,274.8859,0,U,49434,999,19536,.22134E-3,.3239E-4,0
STARLINK-3117,2021-104AD,2025-05-19T14:20:46.745664,15.08840009,.0001655,53.2167,89.3489,90.3382,269.7800,0,U,49435,999,19451,.41708E-4,.376E-5,0
STARLINK-3049,2021-104AE,2025-05-19T20:40:56.887392,15.08836967,.0001494,53.2167,88.1650,86.4686,273.6477,0,U,49436,999,19562,.38688E-4,.328E-5,0
STARLINK-3130,2021-104AF,2025-05-19T03:01:06.422592,15.08839184,.0001372,53.2163,91.4691,89.9047,270.2102,0,U,49437,999,19444,.3631E-4,.29E-5,0
STARLINK-3044,2021-104AG,2025-05-19T13:54:16.867296,15.08836959,.0001453,53.2177,89.3633,87.2790,272.8368,0,U,49438,999,19451,-.75133E-5,-.408E-5,0
STARLINK-3105,2021-104AJ,2025-05-19T04:25:54.261120,15.08834661,.0001716,53.2173,91.2025,93.5774,266.5414,0,U,49440,999,19445,-.15013E-4,-.527E-5,0
STARLINK-3128,2021-104AK,2025-05-19T13:31:43.319712,15.08834748,.0001396,53.2168,89.5031,93.1551,266.9600,0,U,49441,999,19451,-.49054E-4,-.1068E-4,0
STARLINK-3098,2021-104AL,2025-05-19T20:14:27.174912,15.08839737,.0001585,53.2185,88.2461,87.7542,272.3631,0,U,49442,999,19563,.19368E-4,.2E-6,0
STARLINK-3136,2021-104AM,2025-05-19T13:26:24.962496,15.08835797,.0001439,53.2170,89.5190,89.5795,270.5362,0,U,49443,999,19451,.16237E-4,-.3E-6,0
STARLINK-3126,2021-104AN,2025-05-19T13:48:59.440608,15.08837006,.0001592,53.2176,89.4561,81.4570,278.6602,0,U,49444,999,19451,-.95429E-5,-.44E-5,0
STARLINK-3122,2021-104AP,2025-05-19T03:54:13.261536,15.08838830,.0001452,53.2176,101.6961,95.3724,264.7433,0,U,49445,999,19430,.18514E-4,.7E-7,0
STARLINK-3099,2021-104AQ,2025-05-19T13:42:18.781344,15.08836914,.0001363,53.2179,89.4671,89.4531,270.6617,0,U,49446,999,19451,.65408E-4,.753E-5,0
STARLINK-3115,2021-104AR,2025-05-19T21:53:48.908832,15.08833994,.0001607,53.2170,97.9370,90.6708,269.4469,0,U,49447,999,19549,.58165E-4,.638E-5,0
STARLINK-3137,2021-104AT,2025-05-19T21:48:31.107168,15.08832930,.0001613,53.2166,97.9624,93.7458,266.3719,0,U,49449,999,19550,.20412E-4,.37E-6,0
STARLINK-3127,2021-104AU,2025-05-19T04:35:10.767840,15.08833717,.0001483,53.2172,101.2148,91.9773,268.1389,0,U,49450,999,19457,-.98228E-5,-.444E-5,0
