STARLINK-3111           
1 49418U 21104L   25139.33368615 -.00000049  00000+0  14996-4 0  9995
2 49418  53.2171 110.5333 0001477  88.8250 271.2912 15.08838190194183
STARLINK-3120           
1 49419U 21104M   25139.65384992 -.00000415  00000+0 -80019-5 0  9995
2 49419  53.2159 109.0964 0001349  94.8434 265.2712 15.08839389195321
STARLINK-3110           
1 49420U 21104N   25139.19752801 -.00000544  00000+0 -16099-4 0  9993
2 49420  53.2164 111.1455 0001414  90.9595 269.1559 15.08837198194165
STARLINK-3112           
1 49421U 21104P   25139.29685564 -.00000002  00000+0  17949-4 0  9999
2 49421  53.2165 110.5066 0001541  71.4010 288.7150 15.08838648194182
STARLINK-3161           
1 49422U 21104Q   25139.62174884 -.00000183  00000+0  65929-5 0  9997
2 49422  53.2168 109.5600 0001238  90.5333 269.5801 15.08824735195331
STARLINK-3149           
1 49423U 21104R   25139.32634881  .00000272  00000+0  35152-4 0  9995
2 49423  53.2161 110.7599 0001416  91.5099 268.6055 15.08839626194182
STARLINK-3135           
1 49424U 21104S   25139.31897098 -.00000105  00000+0  11525-4 0  9990
2 49424  53.2166 110.5993 0001626  85.0853 275.0325 15.08848046194181
STARLINK-3139           
1 49425U 21104T   25139.63641009 -.00000155  00000+0  83402-5 0  9994
2 49425  53.2170 109.1846 0001371  87.7200 272.3949 15.08834738195322
STARLINK-3114           
1 49426U 21104U   25139.31161188  .00001745  00000+0  12762-3 0  9999
2 49426  53.2162 110.6338 0001168  79.8916 280.2208 15.08855047194182
STARLINK-3131           
1 49427U 21104V   25139.30153079 -.00000333  00000+0 -28230-5 0  9992
2 49427  53.2172 110.6876 0001279  58.8341 301.2776 15.08834253194194
STARLINK-3121           
1 49428U 21104W   25139.61335822  .00000137  00000+0  26724-4 0  9990
2 49428  53.2168 109.1923 0001665  83.5875 276.5307 15.08841317194241
STARLINK-3138           
1 49430U 21104Y   25139.19115864 -.00000054  00000+0  14690-4 0  9996
2 49430  53.2160 111.4538 0001433  87.7335 272.3822 15.08838414194176
STARLINK-3153           
1 49431U 21104Z   25139.60603138 -.00000672  00000+0 -24163-4 0  9992
2 49431  53.2170 109.4930 0001427  87.2223 272.8933 15.08836719194236
STARLINK-3158           
1 49432U 21104AA  25139.19573450 -.00000226  00000+0  38935-5 0  9997
2 49432  53.2175 101.1548 0001604  94.1081 266.0095 15.08831054194312
STARLINK-3079           
1 49433U 21104AB  25139.85808881 -.00000352  00000+0 -40109-5 0  9997
2 49433  53.2173  88.1815 0001449  90.7297 269.3861 15.08837468195649
STARLINK-3134           
1 49434U 21104AC  25139.90407831  .00003239  00000+0  22134-3 0  9995
2 49434  53.2166 108.1277 0000808  85.2225 274.8859 15.08866899195362
STARLINK-3117           
1 49435U 21104AD  25139.59776326  .00000376  00000+0  41708-4 0  9997
2 49435  53.2167  89.3489 0001655  90.3382 269.7800 15.08840009194511
STARLINK-3049           
1 49436U 21104AE  25139.86176953  .00000328  00000+0  38688-4 0  9998
2 49436  53.2167  88.1650 0001494  86.4686 273.6477 15.08836967195628
STARLINK-3130           
1 49437U 21104AF  25139.12576878  .00000290  00000+0  36310-4 0  9996
2 49437  53.2163  91.4691 0001372  89.9047 270.2102 15.08839184194442
STARLINK-3044           
1 49438U 21104AG  25139.57936189 -.00000408  00000+0 -75133-5 0  9991
2 49438  53.2177  89.3633 0001453  87.2790 272.8368 15.08836959194513
STARLINK-3105           
1 49440U 21104AJ  25139.18465580 -.00000527  00000+0 -15013-4 0  9995
2 49440  53.2173  91.2025 0001716  93.5774 266.5414 15.08834661194456
STARLINK-3128           
1 49441U 21104AK  25139.56369583 -.00001068  00000+0 -49054-4 0  9997
2 49441  53.2168  89.5031 0001396  93.1551 266.9600 15.08834748194515
STARLINK-3098           
1 49442U 21104AL  25139.84337008  .00000020  00000+0  19368-4 0  9996
2 49442  53.2185  88.2461 0001585  87.7542 272.3631 15.08839737195639
STARLINK-3136           
1 49443U 21104AM  25139.56001114 -.00000030  00000+0  16237-4 0  9996
2 49443  53.2170  89.5190 0001439  89.5795 270.5362 15.08835797194514
STARLINK-3126           
1 49444U 21104AN  25139.57568797 -.00000440  00000+0 -95429-5 0  9990
2 49444  53.2176  89.4561 0001592  81.4570 278.6602 15.08837006194515
STARLINK-3122           
1 49445U 21104AP  25139.16265349  .00000007  00000+0  18514-4 0  9999
2 49445  53.2176 101.6961 0001452  95.3724 264.7433 15.08838830194308
STARLINK-3099           
1 49446U 21104AQ  25139.57105071  .00000753  00000+0  65408-4 0  9992
2 49446  53.2179  89.4671 0001363  89.4531 270.6617 15.08836914194518
STARLINK-3115           
1 49447U 21104AR  25139.91237163  .00000638  00000+0  58165-4 0  9993
2 49447  53.2170  97.9370 0001607  90.6708 269.4469 15.08833994195495
STARLINK-3137           
1 49449U 21104AT  25139.90869337  .00000037  00000+0  20412-4 0  9995
2 49449  53.2166  97.9624 0001613  93.7458 266.3719 15.08832930195502
STARLINK-3127           
1 49450U 21104AU  25139.19109685 -.00000444  00000+0 -98228-5 0  9996
2 49450  53.2172 101.2148 0001483  91.9773 268.1389 15.08833717194579
